NORAD_CAT_ID,OBJECT_NAME,OBJECT_TYPE,EPOCH,MEAN_MOTION,ECCENTRICITY,INCLINATION,RA_OF_ASC_NODE,ARG_OF_PERICENTER,MEAN_ANOMALY,BSTAR,MEAN_MOTION_DOT,MEAN_MOTION_DDOT,TLE_LINE0,TLE_LINE1,TLE_LINE2,SEMIMAJOR_AXIS,PERIOD,APOGEE,PERIGEE,DECAYED
49769.0,STARLINK-3208,PAYLOAD,2024-06-07 07:40:07,15.08825869,0.0001575,53.2164,133.9034,102.217,257.8998,0.00044895,6.862e-05,0.0,0 STARLINK-3208,1 49769U 21115AX  24159.31953061  .00006862  00000-0  44895-3 0  9999,2 49769  53.2164 133.9034 0001575 102.2170 257.8998 15.08825869140119,6917.924,95.438,540.878,538.699,0.0
49769.0,STARLINK-3208,PAYLOAD,2024-06-07 15:37:02,15.08845898,0.0001477,53.2156,132.415,92.9678,267.1483,0.00027678,4.12e-05,0.0,0 STARLINK-3208,1 49769U 21115AX  24159.65072742  .00004120  00000-0  27678-3 0  9999,2 49769  53.2156 132.4150 0001477  92.9678 267.1483 15.08845898140164,6917.862,95.437,540.749,538.706,0.0
49769.0,STARLINK-3208,PAYLOAD,2024-06-07 21:58:35,15.088485,0.0001399,53.2153,131.2248,94.3764,265.7388,0.00045296,6.93e-05,0.0,0 STARLINK-3208,1 49769U 21115AX  24159.91568731  .00006930  00000-0  45296-3 0  9993,2 49769  53.2153 131.2248 0001399  94.3764 265.7388 15.08848500139092,6917.854,95.437,540.687,538.752,0.0
49769.0,STARLINK-3208,PAYLOAD,2024-06-08 07:30:53,15.08871368,0.0001392,53.2143,129.4399,98.1071,262.0079,0.00078747,0.00012278,0.0,0 STARLINK-3208,1 49769U 21115AX  24160.31311843  .00012278  00000-0  78747-3 0  9998,2 49769  53.2143 129.4399 0001392  98.1071 262.0079 15.08871368139155,6917.785,95.436,540.612,538.687,0.0
49769.0,STARLINK-3208,PAYLOAD,2024-06-08 15:27:49,15.08852849,0.0001775,53.2143,127.9533,88.4066,271.713,0.00021122,3.076e-05,0.0,0 STARLINK-3208,1 49769U 21115AX  24160.64432251  .00003076  00000-0  21122-3 0  9992,2 49769  53.2143 127.9533 0001775  88.4066 271.7130 15.08852849139203,6917.841,95.437,540.934,538.478,0.0
49769.0,STARLINK-3208,PAYLOAD,2024-06-09 04:10:54,15.08845702,0.000164,53.2144,125.574,92.9729,267.1451,3.4097e-05,2.55e-06,0.0,0 STARLINK-3208,1 49769U 21115AX  24161.17424124  .00000255  00000-0  34097-4 0  9993,2 49769  53.2144 125.5740 0001640  92.9729 267.1451 15.08845702140392,6917.863,95.437,540.862,538.593,0.0
49769.0,STARLINK-3208,PAYLOAD,2024-06-09 07:21:40,15.08844333,0.0001549,53.2153,124.9795,92.0159,268.101,4.7806e-05,4.73e-06,0.0,0 STARLINK-3208,1 49769U 21115AX  24161.30672145  .00000473  00000-0  47806-4 0  9990,2 49769  53.2153 124.9795 0001549  92.0159 268.1010 15.08844333139301,6917.867,95.437,540.804,538.661,0.0
49769.0,STARLINK-3208,PAYLOAD,2024-06-09 21:40:09,15.088442,0.0001606,53.2157,122.3033,91.6773,268.4403,0.00025045,3.701e-05,0.0,0 STARLINK-3208,1 49769U 21115AX  24161.90288208  .00003701  00000-0  25045-3 0  9996,2 49769  53.2157 122.3033 0001606  91.6773 268.4403 15.08844200139394,6917.868,95.437,540.844,538.622,0.0
49769.0,STARLINK-3208,PAYLOAD,2024-06-10 04:01:41,15.08851596,0.0001541,53.2162,121.1137,93.8517,266.2651,0.00018254,2.619e-05,0.0,0 STARLINK-3208,1 49769U 21115AX  24162.16783823  .00002619  00000-0  18254-3 0  9999,2 49769  53.2162 121.1137 0001541  93.8517 266.2651 15.08851596139432,6917.845,95.437,540.776,538.644,0.0
49769.0,STARLINK-3208,PAYLOAD,2024-06-10 21:30:56,15.08840738,0.0001446,53.215,117.8437,90.1721,269.9437,0.00014544,2.028e-05,0.0,0 STARLINK-3208,1 49769U 21115AX  24162.89648285  .00002028  00000-0  14544-3 0  9993,2 49769  53.2150 117.8437 0001446  90.1721 269.9437 15.08840738140659,6917.878,95.438,540.743,538.743,0.0
49769.0,STARLINK-3208,PAYLOAD,2024-06-11 13:24:47,15.08847668,0.0001369,53.2154,114.8683,87.6549,272.46,0.00019188,2.768e-05,0.0,0 STARLINK-3208,1 49769U 21115AX  24163.55887836  .00002768  00000-0  19188-3 0  9994,2 49769  53.2154 114.8683 0001369  87.6549 272.4600 15.08847668139643,6917.857,95.437,540.669,538.775,0.0
49769.0,STARLINK-3208,PAYLOAD,2024-06-12 05:18:38,15.0884194,0.0001583,53.2176,111.9018,105.8434,254.2733,4.0115e-05,3.51e-06,0.0,0 STARLINK-3208,1 49769U 21115AX  24164.22128093  .00000351  00000-0  40115-4 0  9993,2 49769  53.2176 111.9018 0001583 105.8434 254.2733 15.08841940140858,6917.874,95.437,540.835,538.644,0.0
49769.0,STARLINK-3208,PAYLOAD,2024-06-12 13:15:34,15.08838248,0.0001635,53.2182,110.4149,104.1661,255.9513,-7.4805e-05,-1.478e-05,0.0,0 STARLINK-3208,1 49769U 21115AX  24164.55248185 -.00001478  00000-0 -74805-4 0  9990,2 49769  53.2182 110.4149 0001635 104.1661 255.9513 15.08838248139798,6917.886,95.438,540.882,538.62,0.0
49769.0,STARLINK-3208,PAYLOAD,2024-06-13 05:09:26,15.08838904,0.0001527,53.2183,107.4395,98.3667,261.7498,4.6005e-05,4.44e-06,0.0,0 STARLINK-3208,1 49769U 21115AX  24165.21488737  .00000444  00000-0  46005-4 0  9994,2 49769  53.2183 107.4395 0001527  98.3667 261.7498 15.08838904141001,6917.884,95.438,540.805,538.692,0.0
49769.0,STARLINK-3208,PAYLOAD,2024-06-13 13:06:22,15.08838164,0.0001625,53.2186,105.9513,90.1766,269.9412,5.9149e-05,6.53e-06,0.0,0 STARLINK-3208,1 49769U 21115AX  24165.54608812  .00000653  00000-0  59149-4 0  9993,2 49769  53.2186 105.9513 0001625  90.1766 269.9412 15.08838164139942,6917.886,95.438,540.875,538.627,0.0
49769.0,STARLINK-3208,PAYLOAD,2024-06-14 12:57:09,15.0884159,0.0001519,53.2178,101.4913,84.8982,275.2184,9.5727e-05,1.236e-05,0.0,0 STARLINK-3208,1 49769U 21115AX  24166.53968751  .00001236  00000-0  95727-4 0  9994,2 49769  53.2178 101.4913 0001519  84.8982 275.2184 15.08841590140091,6917.876,95.437,540.791,538.69,0.0
49769.0,STARLINK-3208,PAYLOAD,2024-06-14 19:18:41,15.0882857,0.0001633,53.2176,100.3014,87.9838,272.1341,0.00031136,4.669e-05,0.0,0 STARLINK-3208,1 49769U 21115AX  24166.80465165  .00004669  00000-0  31136-3 0  9991,2 49769  53.2176 100.3014 0001633  87.9838 272.1341 15.08828570140139,6917.915,95.438,540.91,538.651,0.0
49769.0,STARLINK-3208,PAYLOAD,2024-06-15 12:47:56,15.0883954,0.0001585,53.2183,97.0253,87.3326,272.7848,6.1415e-05,6.9e-06,0.0,0 STARLINK-3208,1 49769U 21115AX  24167.53328980  .00000690  00000-0  61415-4 0  9999,2 49769  53.2183  97.0253 0001585  87.3326 272.7848 15.08839540140245,6917.882,95.438,540.843,538.65,0.0
49769.0,STARLINK-3208,PAYLOAD,2024-06-16 12:38:42,15.08845364,0.0001484,53.2171,92.5696,83.3939,276.7222,8.9904e-05,1.143e-05,0.0,0 STARLINK-3208,1 49769U 21115AX  24168.52688560  .00001143  00000-0  89904-4 0  9999,2 49769  53.2171  92.5696 0001484  83.3939 276.7222 15.08845364140394,6917.864,95.437,540.756,538.702,0.0
49769.0,STARLINK-3208,PAYLOAD,2024-06-16 22:11:01,15.08841247,0.0001476,53.2172,90.7843,98.0737,262.0422,6.29e-05,7.13e-06,0.0,0 STARLINK-3208,1 49769U 21115AX  24168.92432784  .00000713  00000-0  62900-4 0  9997,2 49769  53.2172  90.7843 0001476  98.0737 262.0422 15.08841247140452,6917.877,95.437,540.763,538.72,0.0
49769.0,STARLINK-3208,PAYLOAD,2024-06-17 18:51:03,15.08834217,0.0001348,53.2169,86.9168,101.0042,259.1102,5.9313e-05,6.56e-06,0.0,0 STARLINK-3208,1 49769U 21115AX  24169.78545173  .00000656  00000-0  59313-4 0  9999,2 49769  53.2169  86.9168 0001348 101.0042 259.1102 15.08834217141695,6917.898,95.438,540.696,538.831,0.0
49769.0,STARLINK-3208,PAYLOAD,2024-06-17 22:01:49,15.0883751,0.0001499,53.2169,86.3217,100.717,259.3991,6.0665e-05,6.78e-06,0.0,0 STARLINK-3208,1 49769U 21115AX  24169.91793023  .00000678  00000-0  60665-4 0  9999,2 49769  53.2169  86.3217 0001499 100.7170 259.3991 15.08837510140606,6917.888,95.438,540.79,538.716,0.0
49769.0,STARLINK-3208,PAYLOAD,2024-06-18 04:23:21,15.08842364,0.0001601,53.2156,85.1327,117.564,242.5515,-1.6815e-05,-5.56e-06,0.0,0 STARLINK-3208,1 49769U 21115AX  24170.18288854 -.00000556  00000-0 -16815-4 0  9996,2 49769  53.2156  85.1327 0001601 117.5640 242.5515 15.08842364140647,6917.873,95.437,540.846,538.631,0.0
49769.0,STARLINK-3208,PAYLOAD,2024-06-19 01:03:21,15.08847153,0.0001385,53.2164,81.2678,94.7571,265.3579,0.00014263,1.983e-05,0.0,0 STARLINK-3208,1 49769U 21115AX  24171.04400220  .00001983  00000-0  14263-3 0  9992,2 49769  53.2164  81.2678 0001385  94.7571 265.3579 15.08847153141881,6917.859,95.437,540.682,538.765,0.0
49769.0,STARLINK-3208,PAYLOAD,2024-06-19 10:35:40,15.08844691,0.0001232,53.216,79.4838,87.7401,272.3732,8.3346e-05,1.039e-05,0.0,0 STARLINK-3208,1 49769U 21115AX  24171.44144421  .00001039  00000-0  83346-4 0  9995,2 49769  53.2160  79.4838 0001232  87.7401 272.3732 15.08844691140836,6917.866,95.437,540.583,538.879,0.0
49769.0,STARLINK-3208,PAYLOAD,2024-06-19 21:43:24,15.08829896,0.0001581,53.2189,77.4038,96.6131,263.5041,-6.4481e-06,-3.91e-06,0.0,0 STARLINK-3208,1 49769U 21115AX  24171.90513898 -.00000391  00000-0 -64481-5 0  9996,2 49769  53.2189  77.4038 0001581  96.6131 263.5041 15.08829896142010,6917.911,95.438,540.87,538.683,0.0
49769.0,STARLINK-3208,PAYLOAD,2024-06-20 10:26:28,15.08836498,0.0001486,53.2179,75.0246,90.049,270.0672,1.4457e-05,-5.8e-07,0.0,0 STARLINK-3208,1 49769U 21115AX  24172.43505675 -.00000058  00000-0  14457-4 0  9995,2 49769  53.2179  75.0246 0001486  90.0490 270.0672 15.08836498140987,6917.891,95.438,540.784,538.728,0.0
49769.0,STARLINK-3208,PAYLOAD,2024-06-20 21:34:10,15.08845089,0.0001448,53.218,72.9431,91.8644,268.2513,1.9847e-05,2.8e-07,0.0,0 STARLINK-3208,1 49769U 21115AX  24172.89873234  .00000028  00000-0  19847-4 0  9998,2 49769  53.2180  72.9431 0001448  91.8644 268.2513 15.08845089141057,6917.865,95.437,540.732,538.728,0.0
49769.0,STARLINK-3208,PAYLOAD,2024-06-20 23:09:33,15.08842472,0.0001491,53.2174,72.6458,89.9982,270.1181,6.4182e-06,-1.86e-06,0.0,0 STARLINK-3208,1 49769U 21115AX  24172.96497062 -.00000186  00000-0  64182-5 0  9996,2 49769  53.2174  72.6458 0001491  89.9982 270.1181 15.08842472142177,6917.873,95.437,540.769,538.706,0.0
49769.0,STARLINK-3208,PAYLOAD,2024-06-21 03:55:42,15.08848682,0.0001523,53.2174,71.753,91.35,268.7667,0.00016096,2.275e-05,0.0,0 STARLINK-3208,1 49769U 21115AX  24173.16368816  .00002275  00000-0  16096-3 0  9992,2 49769  53.2174  71.7530 0001523  91.3500 268.7667 15.08848682141098,6917.854,95.437,540.772,538.665,0.0
